E-ST@R-II               
1 41459U 16025D   22105.38953025  .00017621  00000+0  78207-3 0  9995
2 41459  98.1780 265.9634 0150240 123.4786 238.0934 15.11970309327968
AAUSAT 4                
1 41460U 16025E   22105.40529048  .00024279  00000+0  97826-3 0  9999
2 41460  98.1726 271.6431 0132073 101.2747 260.3172 15.17081692328376
BEESAT-4                
1 41619U 16040W   22105.40287304  .00015275  00000+0  54074-3 0  9992
2 41619  97.2247 157.7760 0008848 350.4920   9.6152 15.29187096311082
CANX-7                  
1 41788U 16059F   22105.11704876  .02982497  00000+0  44228-1 0  9994
2 41788  98.2032 231.6696 0031637 290.7420 249.6616 15.50878127299009
RAVAN                   
1 41849U 16067B   22105.42689854  .00004053  00000+0  32851-3 0  9995
2 41849  97.9919 240.6344 0015227 180.4422 179.6790 15.00209116296543
CELTEE 1                
1 41850U 16067C   22105.33668054  .00001709  00000+0  14947-3 0  9997
2 41850  97.9870 235.8419 0008237 181.1795 178.9408 14.98127981296301
OPTICUBE 04             
1 41851U 16067D   22105.35764395  .00001675  00000+0  14872-3 0  9994
2 41851  97.9846 234.9911 0008922 183.3330 176.7834 14.97555030296265
AEROCUBE 8D             
1 41852U 16067E   22105.32111197  .00002726  00000+0  23605-3 0  9990
2 41852  97.9857 234.9147 0009130 180.0565 180.0657 14.97985847296247
AEROCUBE 8C             
1 41853U 16067F   22105.30096755  .00003326  00000+0  28708-3 0  9997
2 41853  97.9833 234.7238 0010058 182.3520 177.7655 14.97943081296232
PROMETHEUS 2-1          
1 41854U 16067G   22105.58093201  .00005348  00000+0  44743-3 0  9994
2 41854  97.9863 235.9634 0010020 175.0076 185.1248 14.98880417296328
PROMETHEUS 2-3          
1 41855U 16067H   22105.57455084  .00005367  00000+0  44878-3 0  9995
2 41855  97.9851 236.0296 0010595 176.4148 183.7152 14.98894935296322
INS-1B                  
1 41954U 17008G   22105.41912463  .00014518  00000+0  50631-3 0  9995
2 41954  97.2648 166.6660 0009646 102.4115 257.8206 15.29682050287107
BGUSAT                  
1 41999U 17008BD  22105.46268032  .00030402  00000+0  84426-3 0  9994
2 41999  97.2869 176.2556 0007489 102.4163 257.7920 15.36811349286955
DIDO-2                  
1 42000U 17008BE  22105.42893945  .00008415  00000+0  31448-3 0  9996
2 42000  97.2636 166.3319 0009280 119.3579 240.8589 15.27556343286445
PEASSS                  
1 42015U 17008BV  22105.12525839  .00014189  00000+0  49017-3 0  9999
2 42015  97.2698 169.5264 0007113 117.3062 242.8903 15.30016624287081
AL-FARABI 1             
1 42016U 17008BW  22105.44829426  .00018161  00000+0  58390-3 0  9992
2 42016  97.2760 172.5500 0006781 114.1694 246.0258 15.32287439287394
NAYIF-1 (EO-88)         
1 42017U 17008BX  22105.14165541  .00018621  00000+0  59694-3 0  9990
2 42017  97.2752 172.2562 0006806 114.3013 245.8941 15.32375791287379
UCLSAT                  
1 42765U 17036A   22105.10278258  .00014136  00000+0  51799-3 0  9992
2 42765  97.2060 149.7971 0010244 179.2941 180.8315 15.28058875268171
LITUANICASAT-2          
1 42768U 17036D   22105.38550022  .00023891  00000+0  76881-3 0  9994
2 42768  97.2144 152.2266 0012838 166.6731 193.4853 15.32144203267588
AALTO-1                 
1 42775U 17036L   22105.38273086  .00007953  00000+0  32429-3 0  9995
2 42775  97.2056 145.5017 0012970 181.6414 178.4783 15.24622250267162
URSA MAIOR              
1 42776U 17036M   22105.38453222  .00008641  00000+0  34739-3 0  9999
2 42776  97.2070 146.1733 0012771 180.4717 179.6512 15.25077028267197
COMPASS 2               
1 42777U 17036N   22105.37184213  .00018690  00000+0  64225-3 0  9998
2 42777  97.2130 151.8363 0011261 168.0267 192.1243 15.30091755267495
DIAMOND RED             
1 42783U 17036U   22105.34148255  .00009215  00000+0  35782-3 0  9997
2 42783  97.2077 148.3362 0010928 184.7815 175.3321 15.26241087267316
PEGASUS                 
1 42784U 17036V   22105.38427326  .00012266  00000+0  45967-3 0  9997
2 42784  97.2073 149.3987 0010847 181.7848 178.3354 15.27345371267388
DIAMOND GREEN           
1 42785U 17036W   22105.53711774  .00010025  00000+0  38876-3 0  9990
2 42785  97.2080 148.5866 0010873 184.6780 175.4359 15.26259413267417
DIAMOND BLUE            
1 42786U 17036X   22105.33922798  .00010000  00000+0  38788-3 0  9994
2 42786  97.2080 148.3883 0010823 185.6441 174.4678 15.26254681267386
NUDTSAT                 
1 42787U 17036Y   22105.61164745  .00019282  00000+0  64365-3 0  9997
2 42787  97.2108 153.2907 0010406 170.8485 189.2948 15.31034600267478
SUCHAI                  
1 42788U 17036Z   22105.11865988  .00016166  00000+0  57958-3 0  9998
2 42788  97.2082 150.6166 0010415 177.9527 182.1758 15.28744798267500
SKCUBE                  
1 42789U 17036AA  22105.08808794  .00014637  00000+0  53420-3 0  9998
2 42789  97.2079 150.1186 0010370 179.0754 181.0507 15.28181400267391
VZLUSAT-1               
1 42790U 17036AB  22105.09183628  .00021210  00000+0  70991-3 0  9990
2 42790  97.2108 152.7625 0009734 171.8021 188.3382 15.30935670267548
ROBUSTA-1B              
1 42792U 17036AD  22105.39042563  .00014183  00000+0  51086-3 0  9992
2 42792  97.2077 150.9304 0009983 177.5317 182.5974 15.28624854267488
CICERO 6                
1 42793U 17036AE  22105.55653319  .00008306  00000+0  32280-3 0  9993
2 42793  97.2057 149.1157 0009432 182.3326 177.7870 15.26255061267474
CORVUS BC2              
1 42846U 17042X   22105.54187097  .00001311  00000+0  13212-3 0  9996
2 42846  97.4320 326.3877 0008824 198.6579 161.4319 14.92699581258895
CORVUS BC1              
1 42847U 17042Y   22105.55987228  .00001567  00000+0  15646-3 0  9998
2 42847  97.4323 326.6991 0008494 197.5227 162.5701 14.92803896258905
MIRATA                  
1 43015U 17073C   22105.42764459  .00009771  00000+0  71600-3 0  9992
2 43015  97.6813   3.0898 0242920  28.5718 332.8563 14.83017185237928
MAKERSAT 0              
1 43016U 17073D   22105.45998433  .00007585  00000+0  56572-3 0  9999
2 43016  97.6837   2.8314 0249049  32.2224 329.3933 14.81585526237860
AEROCUBE 7B (OCSD B)    
1 43042U 17071F   22105.42058770  .00091632  00000+0  90183-3 0  9996
2 43042  51.6348   5.8327 0001417 155.7627 204.3435 15.65222502245779
AEROCUBE 7C (OCSD C)    
1 43043U 17071G   22105.13820333  .00090309  00000+0  92634-3 0  9990
2 43043  51.6343   8.4149 0001235 140.0825 220.0261 15.64185235245683
ASGARDIA 1              
1 43049U 17071N   22105.25803827  .00072285  00000+0  80221-3 0  9990
2 43049  51.6360   8.6530 0002359 140.6767 219.4398 15.62266197245692
PROPCUBE 2 (FAUNA)      
1 43052U 17071R   22105.10235460  .00108237  00000+0  10302-2 0  9999
2 43052  51.6321   2.3094 0002766 159.1629 200.9480 15.65983626245753
CORVUS BC3              
1 43118U 18004H   22105.45425605  .00007627  00000+0  29640-3 0  9996
2 43118  97.3668 179.0072 0008660 217.2870 142.7768 15.26301234236600
MICROMAS-2A             
1 43131U 18004W   22105.49940576  .00023756  00000+0  74568-3 0  9994
2 43131  97.3787 184.7685 0007363 202.9892 157.1021 15.32998185236925
SPACEBEE-4              
1 43139U 18004AE  22105.46627922  .00043945  00000+0  11512-2 0  9997
2 43139  97.3881 188.9020 0006783 198.5380 161.5619 15.38545824237145
SPACEBEE-3              
1 43140U 18004AF  22105.46831082  .00058126  00000+0  12594-2 0  9991
2 43140  97.3924 191.8567 0006361 196.6864 163.4175 15.44217001237319
SPACEBEE-2              
1 43141U 18004AG  22105.20773154  .00077304  00000+0  15465-2 0  9998
2 43141  97.3950 192.7362 0005984 199.2383 160.8642 15.46483253237335
SPACEBEE-1              
1 43142U 18004AH  22105.19128641  .00096357  00000+0  17281-2 0  9999
2 43142  97.3960 193.9474 0005928 198.4554 161.6483 15.49561839237391
CICERO 7                
1 43143U 18004AJ  22105.45747366  .00016059  00000+0  52960-3 0  9995
2 43143  97.3764 184.4861 0005527 210.2259 149.8664 15.31505838236924
GOMX-4B                 
1 43196U 18015E   22105.36141297  .00007495  00000+0  29179-3 0  9996
2 43196  97.5229 244.2347 0016280 279.4380  80.5018 15.26172511233534
GOMX-4A                 
1 43197U 18015F   22105.59981572  .00008202  00000+0  30528-3 0  9997
2 43197  97.5210 245.1151 0016334 278.2972 141.5771 15.27632448233627
AEROCUBE 12A            
1 43556U 18046C   22105.34535133  .00020243  00000+0  56645-3 0  9998
2 43556  51.6362 130.9208 0005631 157.7904 202.3324 15.36614302209603
AEROCUBE 12B            
1 43557U 18046D   22105.47536860  .00015704  00000+0  46131-3 0  9996
2 43557  51.6377 133.9771 0006067 157.0874 203.0380 15.35277682209527
SURFSAT                 
1 43614U 18070B   22105.48611482  .00034377  00000+0  60750-3 0  9992
2 43614  93.0272  72.1115 0007308 259.0966 100.9472 15.50205862201296
CP7 (DAVE)              
1 43615U 18070C   22105.45546320  .00033831  00000+0  61375-3 0  9996
2 43615  93.0272  71.9904 0007640 261.5189  98.5205 15.49457355201261
ELFIN-B                 
1 43616U 18070D   22105.42155307  .00059561  00000+0  80066-3 0  9991
2 43616  93.0183  72.8183 0005994 237.9885 122.0797 15.57680266201517
ELFIN-A                 
1 43617U 18070E   22105.49499913  .00052946  00000+0  67822-3 0  9998
2 43617  93.0261  74.0653 0005640 224.4309 135.6504 15.58992861201560
CUBEBEL-1 (BSUSAT-1)    
1 43666U 18083E   22105.57356932  .00009801  00000+0  43188-3 0  9999
2 43666  97.4273 135.0071 0013504 186.3784 297.4419 15.21934189191916
CICERO 10               
1 43690U 18088A   22105.41180155  .00009137  00000+0  37766-3 0  9993
2 43690  85.0409 358.1552 0014942  29.7112 330.4976 15.23728917190154
IRVINE01                
1 43693U 18088D   22105.18869385  .00034023  00000+0  10501-2 0  9998
2 43693  85.0343 353.5942 0013026 359.3665   0.7564 15.33326514190511
PROXIMA I               
1 43694U 18088E   22105.43735913  .00009393  00000+0  36961-3 0  9997
2 43694  85.0343 354.9877 0017218 355.7570   4.3525 15.25347589190362
